NORAD_CAT_ID,OBJECT_NAME,OBJECT_TYPE,EPOCH,MEAN_MOTION,ECCENTRICITY,INCLINATION,RA_OF_ASC_NODE,ARG_OF_PERICENTER,MEAN_ANOMALY,BSTAR,MEAN_MOTION_DOT,MEAN_MOTION_DDOT,TLE_LINE0,TLE_LINE1,TLE_LINE2,SEMIMAJOR_AXIS,PERIOD,APOGEE,PERIGEE,DECAYED
52621.0,STARLINK-3984,PAYLOAD,2022-08-14 04:00:00,15.08819685,0.0001544,53.2184,0.8631,62.4157,140.3888,0.0016504999999999,0.00026063,0.0,0 STARLINK-3984,1 52621U 22052Z   22226.16667824  .00026063  00000-0  16505-2 0  9997,2 52621  53.2184   0.8631 0001544  62.4157 140.3888 15.08819685 14578,6917.941999999999,95.439,540.876,538.739,0.0
52621.0,STARLINK-3984,PAYLOAD,2022-08-14 14:00:01,15.08860673,0.0001615,53.2187,358.997,60.7273,246.5652,-0.0016155,-0.00025921,0.0,0 STARLINK-3984,1 52621U 22052Z   22226.58334491 -.00025921  00000-0 -16155-2 0  9999,2 52621  53.2187 358.9970 0001615  60.7273 246.5652 15.08860673  1301,6917.816999999999,95.436,540.799,538.565,0.0
52621.0,STARLINK-3984,PAYLOAD,2022-08-14 22:00:00,15.0885126,0.0001573,53.2183,357.5009,54.8401,264.0615,-0.0017719,-0.00028386,0.0,0 STARLINK-3984,1 52621U 22052Z   22226.91667824 -.00028386  00000-0 -17719-2 0  9990,2 52621  53.2183 357.5009 0001573  54.8401 264.0615 15.08851260  1301,6917.846,95.437,540.799,538.623,0.0
52621.0,STARLINK-3984,PAYLOAD,2022-08-15 04:00:00,15.08814877,0.0001405,53.2186,356.3774,60.9335,176.6724,0.0020954999999999,0.00033196,0.0,0 STARLINK-3984,1 52621U 22052Z   22227.16667824  .00033196  00000-0  20955-2 0  9997,2 52621  53.2186 356.3774 0001405  60.9335 176.6724 15.08814877 14720,6917.956999999999,95.439,540.794,538.85,0.0
52621.0,STARLINK-3984,PAYLOAD,2022-08-15 14:00:01,15.08859449,0.0001536,53.2185,354.5083,59.1655,282.9138,-0.0031869,-0.00050678,0.0,0 STARLINK-3984,1 52621U 22052Z   22227.58334491 -.00050678  00000-0 -31869-2 0  9996,2 52621  53.2185 354.5083 0001536  59.1655 282.9138 15.08859449  1306,6917.821,95.436,540.749,538.623,0.0
52621.0,STARLINK-3984,PAYLOAD,2022-08-15 20:00:01,15.08815276,0.0001609,53.2182,353.3867,55.7827,205.004,0.0013265999999999,0.00020874,0.0,0 STARLINK-3984,1 52621U 22052Z   22227.83334491  .00020874  00000-0  13266-2 0  9998,2 52621  53.2182 353.3867 0001609  55.7827 205.0040 15.08815276 14823,6917.956,95.439,540.934,538.7080000000002,0.0
52621.0,STARLINK-3984,PAYLOAD,2022-08-15 22:00:00,15.08833571,0.0001603,53.218,353.0121,56.8848,296.7902,-0.00099335,-0.0001606,0.0,0 STARLINK-3984,1 52621U 22052Z   22227.91667824 -.00016060  00000-0 -99335-3 0  9992,2 52621  53.2180 353.0121 0001603  56.8848 296.7902 15.08833571  1301,6917.9,95.438,540.874,538.656,0.0
52621.0,STARLINK-3984,PAYLOAD,2022-08-16 12:00:00,15.08844826,0.000155,53.2181,350.3934,63.7703,220.1617,-0.0013368,-0.00021503,0.0,0 STARLINK-3984,1 52621U 22052Z   22228.50001157 -.00021503  00000-0 -13368-2 0  9998,2 52621  53.2181 350.3934 0001550  63.7703 220.1617 15.08844826 14923,6917.866,95.437,540.803,538.658,0.0
52621.0,STARLINK-3984,PAYLOAD,2022-08-16 14:00:01,15.08840254,0.0001605,53.2179,350.0198,61.0657,315.7656,-0.001047,-0.00016912,0.0,0 STARLINK-3984,1 52621U 22052Z   22228.58334491 -.00016912  00000-0 -10470-2 0  9995,2 52621  53.2179 350.0198 0001605  61.0657 315.7656 15.08840254  1302,6917.88,95.438,540.855,538.634,0.0
52621.0,STARLINK-3984,PAYLOAD,2022-08-16 22:00:00,15.08851237,0.0001592,53.2174,348.5233,57.5869,330.8308,-0.00070533,-0.00011499,0.0,0 STARLINK-3984,1 52621U 22052Z   22228.91667824 -.00011499  00000-0 -70533-3 0  9993,2 52621  53.2174 348.5233 0001592  57.5869 330.8308 15.08851237  1304,6917.846,95.437,540.812,538.61,0.0
52621.0,STARLINK-3984,PAYLOAD,2022-08-17 04:00:00,15.08821869,0.0001469,53.2175,347.3999,64.8931,242.2323,0.0027849,0.0004428999999999,0.0,0 STARLINK-3984,1 52621U 22052Z   22229.16667824  .00044290  00000-0  27849-2 0  9995,2 52621  53.2175 347.3999 0001469  64.8931 242.2323 15.08821869 15031,6917.936,95.439,540.817,538.785,0.0
52621.0,STARLINK-3984,PAYLOAD,2022-08-17 12:00:00,15.08866487,0.0001494,53.2174,345.9046,61.8564,256.8574,-0.0041186999999999,-0.0006529,0.0,0 STARLINK-3984,1 52621U 22052Z   22229.50001157 -.00065290  00000-0 -41187-2 0  9990,2 52621  53.2174 345.9046 0001494  61.8564 256.8574 15.08866487 15083,6917.799,95.436,540.698,538.631,0.0
52621.0,STARLINK-3984,PAYLOAD,2022-08-17 16:00:00,15.08824648,0.0001539,53.2174,345.1571,56.852,87.6739,0.00054288,8.359e-05,0.0,0 STARLINK-3984,1 52621U 22052Z   22229.66667824  .00008359  00000-0  54288-3 0  9994,2 52621  53.2174 345.1571 0001539  56.8520  87.6739 15.08824648  1300,6917.927,95.439,540.857,538.7280000000002,0.0
52621.0,STARLINK-3984,PAYLOAD,2022-08-18 14:00:01,15.08832914,0.000168,53.217,341.0418,59.6023,26.8039,-0.00028799,-4.868e-05,0.0,0 STARLINK-3984,1 52621U 22052Z   22230.58334491 -.00004868  00000-0 -28799-3 0  9999,2 52621  53.2170 341.0418 0001680  59.6023  26.8039 15.08832914  1300,6917.901999999999,95.438,540.929,538.605,0.0
52621.0,STARLINK-3984,PAYLOAD,2022-08-18 20:00:01,15.08843986,0.0001689,53.2169,339.9196,55.3311,309.7598,-0.00082724,-0.00013431,0.0,0 STARLINK-3984,1 52621U 22052Z   22230.83334491 -.00013431  00000-0 -82724-3 0  9991,2 52621  53.2169 339.9196 0001689  55.3311 309.7598 15.08843986 15285,6917.868,95.437,540.9019999999998,538.565,0.0
52621.0,STARLINK-3984,PAYLOAD,2022-08-18 22:00:00,15.08863891,0.0001703,53.2169,339.545,57.31800000000001,40.6665,-0.0040146999999999,-0.0006366,0.0,0 STARLINK-3984,1 52621U 22052Z   22230.91667824 -.00063660  00000-0 -40147-2 0  9990,2 52621  53.2169 339.5450 0001703  57.3180  40.6665 15.08863891  1308,6917.807,95.436,540.85,538.494,0.0
52621.0,STARLINK-3984,PAYLOAD,2022-08-19 14:00:01,15.08827594,0.0001831,53.2172,336.5526,60.3727,60.7771,-0.00019629,-3.41e-05,0.0,0 STARLINK-3984,1 52621U 22052Z   22231.58334491 -.00003410  00000-0 -19629-3 0  9994,2 52621  53.2172 336.5526 0001831  60.3727  60.7771 15.08827594  1307,6917.918000000002,95.438,541.05,538.5169999999998,0.0
52621.0,STARLINK-3984,PAYLOAD,2022-08-19 22:00:00,15.08859452,0.000176,53.2172,335.0557,58.2536,74.4682,-0.003397,-0.00053976,0.0,0 STARLINK-3984,1 52621U 22052Z   22231.91667824 -.00053976  00000-0 -33970-2 0  9996,2 52621  53.2172 335.0557 0001760  58.2536  74.4682 15.08859452  1301,6917.821,95.436,540.903,538.4680000000002,0.0
52621.0,STARLINK-3984,PAYLOAD,2022-08-20 04:00:00,15.08802468,0.0001599,53.2174,333.9322,63.0969,348.3335,0.0018345,0.00028999,0.0,0 STARLINK-3984,1 52621U 22052Z   22232.16667824  .00028999  00000-0  18345-2 0  9998,2 52621  53.2174 333.9322 0001599  63.0969 348.3335 15.08802468 15481,6917.995,95.44,540.966,538.754,0.0
52621.0,STARLINK-3984,PAYLOAD,2022-08-20 14:00:01,15.08820716,0.0001758,53.2176,332.0635,57.224,98.6668,0.00013374,1.84e-05,0.0,0 STARLINK-3984,1 52621U 22052Z   22232.58334491  .00001840  00000-0  13374-3 0  9999,2 52621  53.2176 332.0635 0001758  57.2240  98.6668 15.08820716  1300,6917.939,95.439,541.021,538.5880000000002,0.0
52621.0,STARLINK-3984,PAYLOAD,2022-08-20 22:00:00,15.08847282,0.0001696999999999,53.2177,330.5665,56.9861,110.4764,-0.0015276,-0.00024523,0.0,0 STARLINK-3984,1 52621U 22052Z   22232.91667824 -.00024523  00000-0 -15276-2 0  9992,2 52621  53.2177 330.5665 0001697  56.9861 110.4764 15.08847282  1301,6917.858,95.437,540.8969999999998,538.549,0.0
52621.0,STARLINK-3984,PAYLOAD,2022-08-21 04:00:00,15.08811566,0.0001591,53.2179,329.4431,62.3117,23.8496,0.0030264,0.00048169,0.0,0 STARLINK-3984,1 52621U 22052Z   22233.16667824  .00048169  00000-0  30264-2 0  9994,2 52621  53.2179 329.4431 0001591  62.3117  23.8496 15.08811566 15635,6917.967,95.439,540.933,538.732,0.0
52621.0,STARLINK-3984,PAYLOAD,2022-08-21 14:00:01,15.08837988,0.0001757,53.218,327.5745,56.3792,134.2681,0.00043841,6.696e-05,0.0,0 STARLINK-3984,1 52621U 22052Z   22233.58334491  .00006696  00000-0  43841-3 0  9996,2 52621  53.2180 327.5745 0001757  56.3792 134.2681 15.08837988  1308,6917.887,95.438,540.967,538.536,0.0
52621.0,STARLINK-3984,PAYLOAD,2022-08-21 20:00:01,15.08864817,0.0001703,53.2179,326.4519,53.9283,55.4114,-0.0022068,-0.00035262,0.0,0 STARLINK-3984,1 52621U 22052Z   22233.83334491 -.00035262  00000-0 -22068-2 0  9994,2 52621  53.2179 326.4519 0001703  53.9283  55.4114 15.08864817 15730,6917.805,95.436,540.8480000000002,538.491,0.0
52621.0,STARLINK-3984,PAYLOAD,2022-08-21 22:00:00,15.08877141,0.0001628,53.218,326.0773,56.5321,145.7073,-0.0046171,-0.00073098,0.0,0 STARLINK-3984,1 52621U 22052Z   22233.91667824 -.00073098  00000-0 -46171-2 0  9992,2 52621  53.2180 326.0773 0001628  56.5321 145.7073 15.08877141  1307,6917.767,95.435,540.758,538.506,0.0
52621.0,STARLINK-3984,PAYLOAD,2022-08-22 12:00:00,15.08840042,0.0001608,53.2181,323.4594,55.6096,76.9255,-0.0010983,-0.00017725,0.0,0 STARLINK-3984,1 52621U 22052Z   22234.50001157 -.00017725  00000-0 -10983-2 0  9996,2 52621  53.2181 323.4594 0001608  55.6096  76.9255 15.08840042 15837,6917.88,95.438,540.8580000000002,538.633,0.0
52621.0,STARLINK-3984,PAYLOAD,2022-08-22 22:00:00,15.08854423,0.0001533,53.218,321.5883,55.4194,181.5975,-0.0020172,-0.00032261,0.0,0 STARLINK-3984,1 52621U 22052Z   22234.91667824 -.00032261  00000-0 -20172-2 0  9993,2 52621  53.2180 321.5883 0001533  55.4194 181.5975 15.08854423  1307,6917.8359999999975,95.437,540.762,538.641,0.0
52621.0,STARLINK-3984,PAYLOAD,2022-08-23 04:00:00,15.08824807,0.0001448,53.218,320.4653,61.2281,94.4922,0.0023721999999999,0.00037652,0.0,0 STARLINK-3984,1 52621U 22052Z   22235.16667824  .00037652  00000-0  23722-2 0  9992,2 52621  53.2180 320.4653 0001448  61.2281  94.4922 15.08824807 15938,6917.927,95.439,540.794,538.79,0.0
52621.0,STARLINK-3984,PAYLOAD,2022-08-23 14:00:01,15.08834451,0.0001625,53.218,318.5969,54.1495,206.0675,0.00092482,0.00014459,0.0,0 STARLINK-3984,1 52621U 22052Z   22235.58334491  .00014459  00000-0  92482-3 0  9999,2 52621  53.2180 318.5969 0001625  54.1495 206.0675 15.08834451  1309,6917.897,95.438,540.887,538.638,0.0
